{
  "type": "FeatureCollection",
  "features": [
    {
      "type": "Feature",
      "properties": {
        "norad_id": 41860,
        "name": "GSAT0212 (GALILEO 16)",
        "group": "galileo",
        "lat": 15.293556650601793,
        "lon": 116.9808692137714,
        "alt_km": 23214.129927208323,
        "timestamp": "2025-12-17T09:00:17.411332+00:00",
        "meta_object_name": "GSAT0212 (GALILEO 16)",
        "meta_object_id": "2016-069B",
        "meta_epoch": "2025-12-15T14:02:25.791936",
        "meta_mean_motion": 1.70474669,
        "meta_eccentricity": 0.00021144,
        "meta_inclination": 55.3815,
        "meta_ra_of_asc_node": 106.1668,
        "meta_arg_of_pericenter": 24.9623,
        "meta_mean_anomaly": 335.0097,
        "meta_ephemeris_type": 0,
        "meta_classification_type": "U",
        "meta_norad_cat_id": 41860,
        "meta_element_set_no": 999,
        "meta_rev_at_epoch": 5652,
        "meta_bstar": 0,
        "meta_mean_motion_dot": -8e-08,
        "meta_mean_motion_ddot": 0,
        "tle_line1": "1 41860U 16069B   25349.58502074 -.00000008  00000+0  00000+0 0  9992",
        "tle_line2": "2 41860  55.3815 106.1668 0002114  24.9623 335.0097  1.70474669 56529"
      },
      "geometry": {
        "type": "Point",
        "coordinates": [
          116.9808692137714,
          15.293556650601793
        ]
      }
    },
    {
      "type": "Feature",
      "properties": {
        "norad_id": 41861,
        "name": "GSAT0213 (GALILEO 17)",
        "group": "galileo",
        "lat": 21.861777960325377,
        "lon": -89.95816721603994,
        "alt_km": 23224.08547415796,
        "timestamp": "2025-12-17T09:00:17.411343+00:00",
        "meta_object_name": "GSAT0213 (GALILEO 17)",
        "meta_object_id": "2016-069C",
        "meta_epoch": "2025-12-14T04:37:41.330208",
        "meta_mean_motion": 1.70474935,
        "meta_eccentricity": 0.00024236,
        "meta_inclination": 55.3829,
        "meta_ra_of_asc_node": 106.2129,
        "meta_arg_of_pericenter": 283.222,
        "meta_mean_anomaly": 76.7169,
        "meta_ephemeris_type": 0,
        "meta_classification_type": "U",
        "meta_norad_cat_id": 41861,
        "meta_element_set_no": 999,
        "meta_rev_at_epoch": 5636,
        "meta_bstar": 0,
        "meta_mean_motion_dot": -4e-08,
        "meta_mean_motion_ddot": 0,
        "tle_line1": "1 41861U 16069C   25348.19283947 -.00000004  00000+0  00000+0 0  9990",
        "tle_line2": "2 41861  55.3829 106.2129 0002423 283.2220  76.7169  1.70474935 56361"
      },
      "geometry": {
        "type": "Point",
        "coordinates": [
          -89.95816721603994,
          21.861777960325377
        ]
      }
    },
    {
      "type": "Feature",
      "properties": {
        "norad_id": 41862,
        "name": "GSAT0214 (GALILEO 18)",
        "group": "galileo",
        "lat": 47.447540104246315,
        "lon": 154.83602311017313,
        "alt_km": 23219.317398037703,
        "timestamp": "2025-12-17T09:00:17.411354+00:00",
        "meta_object_name": "GSAT0214 (GALILEO 18)",
        "meta_object_id": "2016-069D",
        "meta_epoch": "2025-12-14T22:12:36.299232",
        "meta_mean_motion": 1.70474813,
        "meta_eccentricity": 0.00014239,
        "meta_inclination": 55.3815,
        "meta_ra_of_asc_node": 106.1855,
        "meta_arg_of_pericenter": 290.4821,
        "meta_mean_anomaly": 69.4663,
        "meta_ephemeris_type": 0,
        "meta_classification_type": "U",
        "meta_norad_cat_id": 41862,
        "meta_element_set_no": 999,
        "meta_rev_at_epoch": 5650,
        "meta_bstar": 0,
        "meta_mean_motion_dot": -6e-08,
        "meta_mean_motion_ddot": 0,
        "tle_line1": "1 41862U 16069D   25348.92542013 -.00000006  00000+0  00000+0 0  9996",
        "tle_line2": "2 41862  55.3815 106.1855 0001423 290.4821  69.4663  1.70474813 56507"
      },
      "geometry": {
        "type": "Point",
        "coordinates": [
          154.83602311017313,
          47.447540104246315
        ]
      }
    },
    {
      "type": "Feature",
      "properties": {
        "norad_id": 43055,
        "name": "GSAT0215 (GALILEO 19)",
        "group": "galileo",
        "lat": 43.68662786428895,
        "lon": 4.80187778109672,
        "alt_km": 23219.437283368046,
        "timestamp": "2025-12-17T09:00:17.411366+00:00",
        "meta_object_name": "GSAT0215 (GALILEO 19)",
        "meta_object_id": "2017-079A",
        "meta_epoch": "2025-12-11T21:30:24.060384",
        "meta_mean_motion": 1.704739,
        "meta_eccentricity": 0.00012658,
        "meta_inclination": 55.1303,
        "meta_ra_of_asc_node": 226.661,
        "meta_arg_of_pericenter": 350.6161,
        "meta_mean_anomaly": 9.46,
        "meta_ephemeris_type": 0,
        "meta_classification_type": "U",
        "meta_norad_cat_id": 43055,
        "meta_element_set_no": 999,
        "meta_rev_at_epoch": 4979,
        "meta_bstar": 0,
        "meta_mean_motion_dot": 1.3e-07,
        "meta_mean_motion_ddot": 0,
        "tle_line1": "1 43055U 17079A   25345.89611181  .00000013  00000+0  00000+0 0  9997",
        "tle_line2": "2 43055  55.1303 226.6610 0001265 350.6161   9.4600  1.70473900 49794"
      },
      "geometry": {
        "type": "Point",
        "coordinates": [
          4.80187778109672,
          43.68662786428895
        ]
      }
    },
    {
      "type": "Feature",
      "properties": {
        "norad_id": 43056,
        "name": "GSAT0216 (GALILEO 20)",
        "group": "galileo",
        "lat": -42.95741977408672,
        "lon": -173.9241619175525,
        "alt_km": 23220.339630118047,
        "timestamp": "2025-12-17T09:00:17.411377+00:00",
        "meta_object_name": "GSAT0216 (GALILEO 20)",
        "meta_object_id": "2017-079B",
        "meta_epoch": "2025-12-15T02:53:15.721440",
        "meta_mean_motion": 1.70474161,
        "meta_eccentricity": 0.00024377,
        "meta_inclination": 55.1296,
        "meta_ra_of_asc_node": 226.5721,
        "meta_arg_of_pericenter": 321.9365,
        "meta_mean_anomaly": 38.1347,
        "meta_ephemeris_type": 0,
        "meta_classification_type": "U",
        "meta_norad_cat_id": 43056,
        "meta_element_set_no": 999,
        "meta_rev_at_epoch": 4986,
        "meta_bstar": 0,
        "meta_mean_motion_dot": 3.8e-07,
        "meta_mean_motion_ddot": 0,
        "tle_line1": "1 43056U 17079B   25349.12032085  .00000038  00000+0  00000+0 0  9995",
        "tle_line2": "2 43056  55.1296 226.5721 0002437 321.9365  38.1347  1.70474161 49862"
      },
      "geometry": {
        "type": "Point",
        "coordinates": [
          -173.9241619175525,
          -42.95741977408672
        ]
      }
    },
    {
      "type": "Feature",
      "properties": {
        "norad_id": 43057,
        "name": "GSAT0217 (GALILEO 21)",
        "group": "galileo",
        "lat": 9.462062633530167,
        "lon": 39.850047163532274,
        "alt_km": 23229.475779624572,
        "timestamp": "2025-12-17T09:00:17.411388+00:00",
        "meta_object_name": "GSAT0217 (GALILEO 21)",
        "meta_object_id": "2017-079C",
        "meta_epoch": "2025-12-14T18:06:24.484320",
        "meta_mean_motion": 1.70474057,
        "meta_eccentricity": 0.00027983,
        "meta_inclination": 55.1277,
        "meta_ra_of_asc_node": 226.5802,
        "meta_arg_of_pericenter": 346.6847,
        "meta_mean_anomaly": 13.3944,
        "meta_ephemeris_type": 0,
        "meta_classification_type": "U",
        "meta_norad_cat_id": 43057,
        "meta_element_set_no": 999,
        "meta_rev_at_epoch": 4984,
        "meta_bstar": 0,
        "meta_mean_motion_dot": 3.5e-07,
        "meta_mean_motion_ddot": 0,
        "tle_line1": "1 43057U 17079C   25348.75445005  .00000035  00000+0  00000+0 0  9991",
        "tle_line2": "2 43057  55.1277 226.5802 0002798 346.6847  13.3944  1.70474057 49841"
      },
      "geometry": {
        "type": "Point",
        "coordinates": [
          39.850047163532274,
          9.462062633530167
        ]
      }
    },
    {
      "type": "Feature",
      "properties": {
        "norad_id": 43058,
        "name": "GSAT0218 (GALILEO 22)",
        "group": "galileo",
        "lat": 26.82725853043472,
        "lon": -112.85201227630247,
        "alt_km": 23218.457843987955,
        "timestamp": "2025-12-17T09:00:17.411399+00:00",
        "meta_object_name": "GSAT0218 (GALILEO 22)",
        "meta_object_id": "2017-079D",
        "meta_epoch": "2025-12-12T15:04:31.769472",
        "meta_mean_motion": 1.70474063,
        "meta_eccentricity": 0.00028411,
        "meta_inclination": 55.1287,
        "meta_ra_of_asc_node": 226.6365,
        "meta_arg_of_pericenter": 306.3289,
        "meta_mean_anomaly": 53.7237,
        "meta_ephemeris_type": 0,
        "meta_classification_type": "U",
        "meta_norad_cat_id": 43058,
        "meta_element_set_no": 999,
        "meta_rev_at_epoch": 4983,
        "meta_bstar": 0,
        "meta_mean_motion_dot": 1.7e-07,
        "meta_mean_motion_ddot": 0,
        "tle_line1": "1 43058U 17079D   25346.62814548  .00000017  00000+0  00000+0 0  9998",
        "tle_line2": "2 43058  55.1287 226.6365 0002841 306.3289  53.7237  1.70474063 49839"
      },
      "geometry": {
        "type": "Point",
        "coordinates": [
          -112.85201227630247,
          26.82725853043472
        ]
      }
    }
  ]
}